STARLINK-30429          
1 57876U 23144N   25309.86463075  .00001049  00000+0  92685-4 0  9992
2 57876  43.0051 240.3507 0001068 277.6292  82.4429 15.02546568118987
STARLINK-30284          
1 57877U 23144P   25309.72257122 -.00000875  00000+0 -49715-4 0  9996
2 57877  43.0039 202.7610 0001308 263.9626  96.1068 15.02527004119400
STARLINK-30433          
1 57878U 23144Q   25310.12720240  .00001996  00000+0  16276-3 0  9997
2 57878  43.0047 238.8812 0000951 266.1926  93.8808 15.02542903119024
STARLINK-30358          
1 57879U 23144R   25309.85907707 -.00000157  00000+0  34881-5 0  9994
2 57879  43.0057 240.3058 0001351 271.6969  88.3719 15.02537552118987
STARLINK-30436          
1 57880U 23144S   25309.78483506 -.00000464  00000+0 -19293-4 0  9995
2 57880  43.0029 240.6106 0001272 273.2870  86.7827 15.02532026118978
STARLINK-30339          
1 57882U 23144U   25310.11388593  .00000127  00000+0  24448-4 0  9998
2 57882  43.0054 238.7824 0000914 267.0610  93.0128 15.02546230119022
STARLINK-30282          
1 57883U 23144V   25310.10833946  .00000568  00000+0  57076-4 0  9997
2 57883  43.0047 238.7399 0001112 273.3339  86.7376 15.02539390119024
STARLINK-30340          
1 57884U 23144W   25309.83798834  .00000768  00000+0  71931-4 0  9990
2 57884  43.0032 240.1411 0001154 263.8868  96.1843 15.02536300118984
STARLINK-30279          
1 57885U 23144X   25310.10722599  .00001403  00000+0  11892-3 0  9994
2 57885  43.0044 238.7321 0000977 272.4169  87.6561 15.02537171118960
YAOGAN-39 02A           
1 57886U 23145A   25310.06203999  .00015173  00000+0  62649-3 0  9994
2 57886  35.0001 163.6157 0001819  59.7857 300.3037 15.23192805119131
YAOGAN-39 02B           
1 57889U 23145D   25310.08589242  .00008347  00000+0  41799-3 0  9995
2 57889  34.9900 175.0288 0009081 299.3176  60.6629 15.16635062118981
YAOGAN-39 02C           
1 57890U 23145E   25310.09086043  .00008688  00000+0  43465-3 0  9999
2 57890  34.9924 175.1066 0009222 204.1379 155.8903 15.16660551118950
STARLINK-30465          
1 57891U 23146A   25310.17656610  .00001053  00000+0  93024-4 0  9999
2 57891  43.0031 264.7402 0001091 271.1989  88.8728 15.02540146118487
STARLINK-30470          
1 57892U 23146B   25310.17324201  .00000343  00000+0  40494-4 0  9992
2 57892  43.0036 264.7144 0001889 277.5645  82.4983 15.02524859118486
STARLINK-30473          
1 57893U 23146C   25310.14992088  .00001190  00000+0  10317-3 0  9995
2 57893  43.0042 264.4869 0001138 267.8562  92.2150 15.02539461118482
STARLINK-30443          
1 57894U 23146D   25310.16657980  .00000797  00000+0  74058-4 0  9992
2 57894  43.0049 264.6698 0001349 277.1344  82.9345 15.02535600118481
STARLINK-30467          
1 57895U 23146E   25310.16990910  .00001572  00000+0  13137-3 0  9998
2 57895  43.0053 264.6958 0000953 276.1782  83.8952 15.02539943118489
STARLINK-30469          
1 57896U 23146F   25310.16323577 -.00014060  00000+0 -10261-2 0  9990
2 57896  43.0065 264.6461 0001821 275.5629  84.5006 15.02598694118486
STARLINK-30474          
1 57897U 23146G   25310.15770632  .00005534  00000+0  42441-3 0  9998
2 57897  43.0048 264.6027 0000773 266.3299  93.7455 15.02537719118483
STARLINK-30479          
1 57898U 23146H   25310.15659267  .00000029  00000+0  17241-4 0  9994
2 57898  43.0043 264.5928 0001118 264.2571  95.8144 15.02536817118488
STARLINK-30481          
1 57899U 23146J   25310.15326013  .00000222  00000+0  31540-4 0  9998
2 57899  43.0054 264.5691 0001285 267.2549  92.8146 15.02536470118485
STARLINK-30457          
1 57900U 23146K   25309.93829842  .00002957  00000+0  23386-3 0  9998
2 57900  43.0040 265.5387 0001300 280.8076  79.2620 15.02535548117390
STARLINK-30472          
1 57901U 23146L   25310.18643474  .00000266  00000+0  34727-4 0  9996
2 57901  43.0048 263.9548 0000576 222.6408 137.4390 15.02551381117436
STARLINK-30462          
1 57902U 23146M   25310.14660172 -.00003287  00000+0 -22836-3 0  9992
2 57902  43.0034 264.5184 0000681 257.9339 102.1427 15.02537549118448
STARLINK-30449          
1 57903U 23146N   25310.18310801  .00000663  00000+0  64117-4 0  9990
2 57903  43.0035 263.9279 0001138 275.8414  84.2298 15.02539952117433
STARLINK-30466          
1 57904U 23146P   25309.87738766 -.00001754  00000+0 -11489-3 0  9996
2 57904  43.0050 265.9394 0001461 272.2718  87.7957 15.02511102117389
STARLINK-30451          
1 57905U 23146Q   25310.17977831 -.00000380  00000+0 -13029-4 0  9997
2 57905  43.0044 263.9028 0001061 264.0085  96.0636 15.02544091117433
STARLINK-30428          
1 57906U 23146R   25310.13993799 -.00002142  00000+0 -14351-3 0  9991
2 57906  43.0043 264.4673 0001135 274.4905  85.5808 15.02551507117426
STARLINK-30482          
1 57907U 23146S   25309.93717627 -.00000947  00000+0 -55029-4 0  9991
2 57907  43.0051 265.5286 0001423 270.5918  89.4761 15.02541269117402
STARLINK-30464          
1 57908U 23146T   25309.93051604  .00000268  00000+0  34874-4 0  9997
2 57908  43.0039 265.4755 0001089 260.8436  99.2284 15.02542432117394
STARLINK-30463          
1 57909U 23146U   25309.93385029  .00000930  00000+0  83911-4 0  9991
2 57909  43.0040 265.5022 0000971 269.3580  90.7151 15.02535793117399
STARLINK-30453          
1 57910U 23146V   25309.92720162  .00013649  00000+0  10257-2 0  9995
2 57910  43.0064 265.4474 0001162 256.6994 103.3718 15.02455084117392
STARLINK-30478          
1 57911U 23146W   25310.17866242 -.00007276  00000+0 -52362-3 0  9990
2 57911  43.0045 263.8889 0000542 278.3940  81.6841 15.02570075118492
STARLINK-30477          
1 57912U 23146X   25309.92386304 -.00000584  00000+0 -28152-4 0  9994
2 57912  43.0066 265.4287 0000979 246.6889 113.3850 15.02539323118450
STARLINK-30450          
1 57913U 23147A   25310.17628995 -.00001523  00000+0 -97668-4 0  9992
2 57913  43.0047 277.5995 0001136 275.2759  84.7953 15.02544576118002
STARLINK-30483          
1 57914U 23147B   25309.94267408  .00000292  00000+0  20144-4 0  9999
2 57914  42.9997 158.4834 0001224 275.2894  84.7818 15.27571437119387
STARLINK-30454          
1 57915U 23147C   25310.16963017  .00000605  00000+0  59872-4 0  9993
2 57915  43.0030 277.5474 0000988 270.8612  89.2118 15.02540579118003
STARLINK-30501          
1 57917U 23147E   25309.90039075  .00000475  00000+0  50235-4 0  9992
2 57917  43.0031 278.9686 0001111 274.1532  85.9183 15.02536267117994
STARLINK-30499          
1 57918U 23147F   25309.99020559  .00001886  00000+0  78040-4 0  9990
2 57918  43.0035 158.8069 0001735 277.0492  83.0162 15.27579330119419
STARLINK-30496          
1 57919U 23147G   25310.22611579  .00001801  00000+0  14832-3 0  9992
2 57919  43.0016 277.1110 0000902 274.9312  85.1427 15.02540917118040
STARLINK-30485          
1 57920U 23147H   25309.89040581 -.00000421  00000+0 -16084-4 0  9995
2 57920  43.0052 278.8932 0001584 267.3738  92.6923 15.02531577117996
STARLINK-30492          
1 57921U 23147J   25309.95356096 -.00000097  00000+0  79142-5 0  9997
2 57921  43.0033 278.5023 0001356 278.3296  81.7392 15.02526309117976
STARLINK-30440          
1 57923U 23147L   25310.21612928  .00000856  00000+0  78410-4 0  9997
2 57923  43.0026 277.0357 0000970 279.9018  80.1715 15.02539964118046
STARLINK-30487          
1 57924U 23147M   25310.19614646  .00001567  00000+0  13106-3 0  9994
2 57924  43.0030 276.8685 0001116 272.3929  87.6786 15.02540463118040
STARLINK-30452          
1 57925U 23147N   25310.21278289  .00003095  00000+0  24393-3 0  9995
2 57925  43.0016 277.0044 0001205 282.5387  77.5321 15.02562348118013
STARLINK-30468          
1 57926U 23147P   25310.20947004  .00001281  00000+0  10987-3 0  9992
2 57926  43.0066 276.9933 0001512 277.4851  82.5820 15.02539727118019
STARLINK-30459          
1 57927U 23147Q   25310.33335648  .00269420  00000+0  53090-2 0  9994
2 57927  42.9962 134.0420 0017422 285.6907 320.9869 15.45326801  5895
STARLINK-30448          
1 57928U 23147R   25310.20281395  .00003635  00000+0  28412-3 0  9995
2 57928  43.0056 276.9355 0001089 261.0926  98.9793 15.02527034118017
STARLINK-30476          
1 57930U 23147T   25310.14696071  .00062555  00000+0  29848-2 0  9991
2 57930  42.9966 249.6594 0013576 142.3936 217.7864 15.18163956118326
STARLINK-30488          
1 57931U 23147U   25310.26597875 -.00002312  00000+0 -15617-3 0  9994
2 57931  43.0040 276.5508 0001199 277.5861  82.4845 15.02527451118055
STARLINK-30471          
1 57932U 23147V   25310.18283239  .00001079  00000+0  94918-4 0  9991
2 57932  43.0045 276.7850 0001070 269.2375  90.8345 15.02539625118019
STARLINK-30461          
1 57933U 23147W   25310.19281507  .00001833  00000+0  15070-3 0  9998
2 57933  43.0014 276.8644 0000781 271.4223  88.6530 15.02543428118010
STARLINK-30712          
1 57935U 23148A   25310.11395566 -.00000793  00000+0 -14639-4 0  9991
2 57935  53.1602 238.1971 0001243  86.3698 273.7445 15.30196495119500
STARLINK-30716          
1 57936U 23148B   25310.07817066  .00001483  00000+0  62185-4 0  9995
2 57936  53.1615 238.5984 0001668  63.6085 296.5087 15.30198448119495
STARLINK-30400          
1 57937U 23148C   25310.11711615  .00000027  00000+0  13058-4 0  9992
2 57937  53.1599 238.1781 0001464  61.6290 298.4858 15.30193888119500
STARLINK-30710          
1 57938U 23148D   25310.03923610 -.00000155  00000+0  68980-5 0  9992
2 57938  53.1617 228.5652 0001509  87.2736 272.8438 15.30198961119621
STARLINK-30714          
1 57939U 23148E   25310.08451141 -.00001474  00000+0 -37670-4 0  9990
2 57939  53.1602 238.6191 0001375  76.0852 284.0301 15.30179209119495
STARLINK-30711          
1 57940U 23148F   25310.08133118  .00002451  00000+0  94833-4 0  9991
2 57940  53.1610 238.6219 0001432  84.4847 275.6317 15.30207479119492
STARLINK-30715          
1 57941U 23148G   25310.09608169  .00003292  00000+0  12318-3 0  9997
2 57941  53.1614 228.0682 0001423  95.0193 265.0970 15.30216050119646
